COMMENT,ORIGINATOR,NORAD_CAT_ID,OBJECT_NAME,OBJECT_TYPE,CLASSIFICATION_TYPE,INTLDES,EPOCH,EPOCH_MICROSECONDS,MEAN_MOTION,ECCENTRICITY,INCLINATION,RA_OF_ASC_NODE,ARG_OF_PERICENTER,MEAN_ANOMALY,EPHEMERIS_TYPE,ELEMENT_SET_NO,REV_AT_EPOCH,BSTAR,MEAN_MOTION_DOT,MEAN_MOTION_DDOT,FILE,TLE_LINE0,TLE_LINE1,TLE_LINE2,OBJECT_ID,OBJECT_NUMBER,SEMIMAJOR_AXIS,PERIOD,APOGEE,PERIGEE,DECAYED,date
GENERATED VIA SPACETRACK.ORG API,18 SPCS,48888,SPACEBEE-103,PAYLOAD,U,21059K,2023/2/5 22:20,176768,15.22352717,0.0007945,97.5778,171.7178,10.008,350.1313,0,999,8936,0.00093029,0.00021452,0,3774577,0 SPACEBEE-103,1 48888U 21059K   23036.93095112  .00021452  00000-0  93029-3 0  9997,2 48888  97.5778 171.7178 0007945  10.0080 350.1313 15.22352717 89364,2021-059K,48888,6876.883,94.59,504.212,493.285,0,2023/3/11
GENERATED VIA SPACETRACK.ORG API,18 SPCS,48888,SPACEBEE-103,PAYLOAD,U,21059K,2023/2/6 7:48,169856,15.22374485,0.0007952,97.5777,172.1156,8.546,351.591,0,999,8942,0.001133,0.00026175,0,3775254,0 SPACEBEE-103,1 48888U 21059K   23037.32532604  .00026175  00000-0  11330-2 0  9994,2 48888  97.5777 172.1156 0007952   8.5460 351.5910 15.22374485 89427,2021-059K,48888,6876.818,94.589,504.151,493.214,0,2023/3/12
GENERATED VIA SPACETRACK.ORG API,18 SPCS,48888,SPACEBEE-103,PAYLOAD,U,21059K,2023/2/6 20:25,371232,15.2240519,0.0007895,97.578,172.6455,6.9105,353.2239,0,999,8950,0.0011987,0.00027728,0,3776034,0 SPACEBEE-103,1 48888U 21059K   23037.85115013  .00027728  00000-0  11987-2 0  9996,2 48888  97.5780 172.6455 0007895   6.9105 353.2239 15.22405190 89502,2021-059K,48888,6876.725,94.587,504.019,493.161,0,2023/3/13
GENERATED VIA SPACETRACK.ORG API,18 SPCS,48888,SPACEBEE-103,PAYLOAD,U,21059K,2023/2/6 22:00,214272,15.2240869,0.0007898,97.578,172.7118,6.7459,353.3882,0,999,8951,0.0012022,0.00027812,0,3775847,0 SPACEBEE-103,1 48888U 21059K   23037.91687748  .00027812  00000-0  12022-2 0  9997,2 48888  97.5780 172.7118 0007898   6.7459 353.3882 15.22408690 89516,2021-059K,48888,6876.715,94.587,504.011,493.148,0,2023/3/14
GENERATED VIA SPACETRACK.ORG API,18 SPCS,48888,SPACEBEE-103,PAYLOAD,U,21059K,2023/2/7 7:28,836192,15.22437828,0.0007972,97.5781,173.1098,5.3405,354.7914,0,999,8957,0.0014216,0.00032953,0,3777208,0 SPACEBEE-103,1 48888U 21059K   23038.31123653  .00032953  00000-0  14216-2 0  9991,2 48888  97.5781 173.1098 0007972   5.3405 354.7914 15.22437828 89570,2021-059K,48888,6876.627,94.585,503.974,493.01,0,2023/3/15
GENERATED VIA SPACETRACK.ORG API,18 SPCS,48888,SPACEBEE-103,PAYLOAD,U,21059K,2023/2/7 21:39,670496,15.22476906,0.000793,97.5783,173.706,3.6351,356.4941,0,999,8966,0.0013437,0.00031171,0,3777806,0 SPACEBEE-103,1 48888U 21059K   23038.90276239  .00031171  00000-0  13437-2 0  9990,2 48888  97.5783 173.7060 0007930   3.6351 356.4941 15.22476906 89661,2021-059K,48888,6876.509,94.583,503.827,492.921,0,2023/3/16
GENERATED VIA SPACETRACK.ORG API,18 SPCS,48888,SPACEBEE-103,PAYLOAD,U,21059K,2023/2/7 21:39,670496,15.22476906,0.000793,97.5783,173.706,3.6351,356.4941,0,999,8966,0.0013437,0.00031171,0,3777976,0 SPACEBEE-103,1 48888U 21059K   23038.90276239  .00031171  00000-0  13437-2 0  9990,2 48888  97.5783 173.7060 0007930   3.6351 356.4941 15.22476906 89661,2021-059K,48888,6876.509,94.583,503.827,492.921,0,2023/3/17
GENERATED VIA SPACETRACK.ORG API,18 SPCS,48888,SPACEBEE-103,PAYLOAD,U,21059K,2023/2/8 8:42,156032,15.22513195,0.0007938,97.5783,174.1698,2.0127,358.1139,0,999,8973,0.0014858,0.00034528,0,3780324,0 SPACEBEE-103,1 48888U 21059K   23039.36282588  .00034528  00000-0  14858-2 0  9992,2 48888  97.5783 174.1698 0007938   2.0127 358.1139 15.22513195 89733,2021-059K,48888,6876.4,94.58,503.723,492.807,0,2023/3/18
GENERATED VIA SPACETRACK.ORG API,18 SPCS,48888,SPACEBEE-103,PAYLOAD,U,21059K,2023/2/8 8:42,156032,15.22513195,0.0007938,97.5783,174.1698,2.0127,358.1139,0,999,8973,0.0014858,0.00034528,0,3780477,0 SPACEBEE-103,1 48888U 21059K   23039.36282588  .00034528  00000-0  14858-2 0  9992,2 48888  97.5783 174.1698 0007938   2.0127 358.1139 15.22513195 89733,2021-059K,48888,6876.4,94.58,503.723,492.807,0,2023/3/19
GENERATED VIA SPACETRACK.ORG API,18 SPCS,48888,SPACEBEE-103,PAYLOAD,U,21059K,2023/2/8 21:19,111712,15.22551009,0.0007907,97.5785,174.7,0.1334,359.9903,0,999,8981,0.0014631,0.00034034,0,3780893,0 SPACEBEE-103,1 48888U 21059K   23039.88860083  .00034034  00000-0  14631-2 0  9992,2 48888  97.5785 174.7000 0007907   0.1334 359.9903 15.22551009 89816,2021-059K,48888,6876.286,94.578,503.588,492.714,0,2023/3/20
GENERATED VIA SPACETRACK.ORG API,18 SPCS,48888,SPACEBEE-103,PAYLOAD,U,21059K,2023/2/9 8:22,667936,15.22588362,0.0007959,97.5782,175.1638,357.984,2.1362,0,999,8988,0.001626,0.00037893,0,3782313,0 SPACEBEE-103,1 48888U 21059K   23040.34864199  .00037893  00000-0  16260-2 0  9993,2 48888  97.5782 175.1638 0007959 357.9840   2.1362 15.22588362 89882,2021-059K,48888,6876.174,94.576,503.511,492.566,0,2023/3/21
GENERATED VIA SPACETRACK.ORG API,18 SPCS,48888,SPACEBEE-103,PAYLOAD,U,21059K,2023/2/9 8:22,667936,15.22588362,0.0007959,97.5782,175.1638,357.984,2.1362,0,999,8988,0.001626,0.00037893,0,3782881,0 SPACEBEE-103,1 48888U 21059K   23040.34864199  .00037893  00000-0  16260-2 0  9993,2 48888  97.5782 175.1638 0007959 357.9840   2.1362 15.22588362 89882,2021-059K,48888,6876.174,94.576,503.511,492.566,0,2023/3/22
GENERATED VIA SPACETRACK.ORG API,18 SPCS,48888,SPACEBEE-103,PAYLOAD,U,21059K,2023/2/12 7:20,267584,15.22839967,0.0007948,97.5779,178.1465,347.7762,12.328,0,999,9033,0.0018712,0.00043979,0,3788053,0 SPACEBEE-103,1 48888U 21059K   23043.30577856  .00043979  00000-0  18712-2 0  9999,2 48888  97.5779 178.1465 0007948 347.7762  12.3280 15.22839967 90331,2021-059K,48888,6875.416,94.56,502.746,491.817,0,2023/3/23
GENERATED VIA SPACETRACK.ORG API,18 SPCS,48888,SPACEBEE-103,PAYLOAD,U,21059K,2023/2/13 10:08,357536,15.22927541,0.0007958,97.5778,179.2734,343.7001,16.3978,0,999,9050,0.0016815,0.00039592,0,3788980,0 SPACEBEE-103,1 48888U 21059K   23044.42279349  .00039592  00000-0  16815-2 0  9997,2 48888  97.5778 179.2734 0007958 343.7001  16.3978 15.22927541 90507,2021-059K,48888,6875.153,94.555,502.489,491.546,0,2023/3/24
GENERATED VIA SPACETRACK.ORG API,18 SPCS,48888,SPACEBEE-103,PAYLOAD,U,21059K,2023/2/13 14:52,983808,15.22940759,0.0007959,97.5778,179.4724,342.9587,17.138,0,999,9053,0.0015838,0.00037291,0,3789366,0 SPACEBEE-103,1 48888U 21059K   23044.61990722  .00037291  00000-0  15838-2 0  9991,2 48888  97.5778 179.4724 0007959 342.9587  17.1380 15.22940759 90534,2021-059K,48888,6875.113,94.554,502.45,491.506,0,2023/3/25
GENERATED VIA SPACETRACK.ORG API,18 SPCS,48888,SPACEBEE-103,PAYLOAD,U,21059K,2023/2/14 14:31,623392,15.23015147,0.0007971,97.5775,180.4671,339.075,21.0159,0,999,9068,0.0016393,0.00038692,0,3791349,0 SPACEBEE-103,1 48888U 21059K   23045.60544703  .00038692  00000-0  16393-2 0  9998,2 48888  97.5775 180.4671 0007971 339.0750  21.0159 15.23015147 90686,2021-059K,48888,6874.889,94.549,502.234,491.274,0,2023/3/26
GENERATED VIA SPACETRACK.ORG API,18 SPCS,48888,SPACEBEE-103,PAYLOAD,U,21059K,2023/2/14 14:31,623392,15.23015147,0.0007971,97.5775,180.4671,339.075,21.0159,0,999,9068,0.0016393,0.00038692,0,3791909,0 SPACEBEE-103,1 48888U 21059K   23045.60544703  .00038692  00000-0  16393-2 0  9998,2 48888  97.5775 180.4671 0007971 339.0750  21.0159 15.23015147 90686,2021-059K,48888,6874.889,94.549,502.234,491.274,0,2023/3/27
GENERATED VIA SPACETRACK.ORG API,18 SPCS,48888,SPACEBEE-103,PAYLOAD,U,21059K,2023/2/15 7:52,844640,15.23070636,0.0008023,97.5774,181.1965,336.2924,23.7942,0,999,9079,0.0016939,0.00040057,0,3793706,0 SPACEBEE-103,1 48888U 21059K   23046.32814635  .00040057  00000-0  16939-2 0  9996,2 48888  97.5774 181.1965 0008023 336.2924  23.7942 15.23070636 90795,2021-059K,48888,6874.722,94.546,502.103,491.071,0,2023/3/28
GENERATED VIA SPACETRACK.ORG API,18 SPCS,48888,SPACEBEE-103,PAYLOAD,U,21059K,2023/2/15 22:03,254336,15.23125887,0.0008033,97.5775,181.7933,334.0457,26.0375,0,999,9088,0.0019838,0.00047045,0,3794667,0 SPACEBEE-103,1 48888U 21059K   23046.91942424  .00047045  00000-0  19838-2 0  9994,2 48888  97.5775 181.7933 0008033 334.0457  26.0375 15.23125887 90880,2021-059K,48888,6874.556,94.542,501.943,490.898,0,2023/3/29
GENERATED VIA SPACETRACK.ORG API,18 SPCS,48888,SPACEBEE-103,PAYLOAD,U,21059K,2023/2/15 22:03,254336,15.23125887,0.0008033,97.5775,181.7933,334.0457,26.0375,0,999,9088,0.0019838,0.00047045,0,3795153,0 SPACEBEE-103,1 48888U 21059K   23046.91942424  .00047045  00000-0  19838-2 0  9994,2 48888  97.5775 181.7933 0008033 334.0457  26.0375 15.23125887 90880,2021-059K,48888,6874.556,94.542,501.943,490.898,0,2023/3/30
GENERATED VIA SPACETRACK.ORG API,18 SPCS,48888,SPACEBEE-103,PAYLOAD,U,21059K,2023/2/16 7:31,765248,15.23163592,0.0008024,97.5777,182.1915,332.974,27.1077,0,999,9094,0.0019556,0.00046423,0,3798293,0 SPACEBEE-103,1 48888U 21059K   23047.31359682  .00046423  00000-0  19556-2 0  9993,2 48888  97.5777 182.1915 0008024 332.9740  27.1077 15.23163592 90942,2021-059K,48888,6874.442,94.54,501.823,490.791,0,2023/3/31
GENERATED VIA SPACETRACK.ORG API,18 SPCS,48888,SPACEBEE-103,PAYLOAD,U,21059K,2023/2/16 21:42,17024,15.23218116,0.0007975,97.5779,182.7885,330.9859,29.0933,0,999,9103,0.0018693,0.00044431,0,3799178,0 SPACEBEE-103,1 48888U 21059K   23047.90483816  .00044431  00000-0  18693-2 0  9993,2 48888  97.5779 182.7885 0007975 330.9859  29.0933 15.23218116 91035,2021-059K,48888,6874.278,94.537,501.626,490.661,0,2023/4/1
GENERATED VIA SPACETRACK.ORG API,18 SPCS,48888,SPACEBEE-103,PAYLOAD,U,21059K,2023/2/17 8:45,313984,15.23249694,0.0007968,97.578,183.2527,329.5582,30.5191,0,999,9110,0.0014682,0.00034869,0,3802024,0 SPACEBEE-103,1 48888U 21059K   23048.36467956  .00034869  00000-0  14682-2 0  9999,2 48888  97.5780 183.2527 0007968 329.5582  30.5191 15.23249694 91101,2021-059K,48888,6874.183,94.535,501.526,490.571,0,2023/4/2
